#cP2015  9 27  0  0  0.00000000      96 ORBIT IGb08 HLM  IGS
## 1864      0.00000000   900.00000000 57292 0.0000000000000
+   32   G01G02G03G04G05G06G07G08G09G10G11G12G13G14G15G16G17
+        G18G19G20G21G22G23G24G25G26G27G28G29G30G31G32  0  0
+          0  0  0  0  0  0  0  0  0  0  0  0  0  0  0  0  0
+          0  0  0  0  0  0  0  0  0  0  0  0  0  0  0  0  0
+          0  0  0  0  0  0  0  0  0  0  0  0  0  0  0  0  0
++         2  2  3  2  2  2  2  2  2  3  2  2  2  2  2  2  2
++         2  2  2  2  2  2  2  2  2  2  2  2  2  2  2  0  0
++         0  0  0  0  0  0  0  0  0  0  0  0  0  0  0  0  0
++         0  0  0  0  0  0  0  0  0  0  0  0  0  0  0  0  0
++         0  0  0  0  0  0  0  0  0  0  0  0  0  0  0  0  0
%c G  cc GPS ccc cccc cccc cccc cccc ccccc ccccc ccccc ccccc
%c cc cc ccc ccc cccc cccc cccc cccc ccccc ccccc ccccc ccccc
%f  1.2500000  1.025000000  0.00000000000  0.000000000000000
%f  0.0000000  0.000000000  0.00000000000  0.000000000000000
%i    0    0    0    0      0      0      0      0         0
%i    0    0    0    0      0      0      0      0         0
/* FINAL ORBIT COMBINATION FROM WEIGHTED AVERAGE OF:        
/* cod emr esa gfz grg jpl mit ngs sio                      
/* REFERENCED TO IGS TIME (IGST) AND TO WEIGHTED MEAN POLE: 
/* PCV:IGS08_1864 OL/AL:FES2004  NONE     Y  ORB:CMB CLK:CMB
*  2015  9 27  0  0  0.00000000
PG01 -13622.206701  22668.301207    333.233889      1.235869  9  4  8  95       
PG02  18016.440526  -5717.127670 -18097.611282    590.534731  9  8  8 137       
PG03 -13330.361948  13160.703766 -18829.396253     21.227543  9  9 10 134       
PG04 -17267.201102  17766.968191   8859.035735    -25.150985  8  5  7  62       
PG05  26385.840759  -2335.833261   3004.308807   -191.253292  7  8  9 123       
PG06  13458.390827   7031.101404 -21792.286061     65.715531  8  9  6 108       
PG07  -2832.714224  22499.953156  13622.677733    484.073037  6  8  6 100       
PG08 -11108.569308  10910.009183  21561.528846     -6.682177  9  6  3 117       
PG09   6217.130601  24007.145348  -9497.286263     -7.190221  8  5  8 114       
PG10 -19268.056605  -5999.789181  17457.974731      1.106237 14 13  8  98       
PG11 -10551.304744  22746.013642   8072.856721   -606.628348  9  6  9  99       
PG12  16092.260130 -11024.011532 -18029.406479    331.690700  9  9  5 111       
PG13  15806.681695    157.518402  21193.487938   -152.234409  7  8  5 117       
PG14 -14633.366995 -21442.132494  -5733.695228     31.994494 10 11 10 131       
PG15  10722.368756 -12067.961806  20954.970975   -273.730870  9  7  9 118       
PG16 -26602.775400     20.990705   2838.651280    -82.450010 10  9  7 124       
PG17  15445.989190  20760.683712  -6156.879243   -189.063738 10  6  7 106       
PG18  -7222.801845 -15539.827747  20854.512091    437.492990 11  8  9 115       
PG19  -4738.279502  18837.114763  17712.272238   -520.694578  7  6  5 120       
PG20  16416.600413 -13276.992464  16006.855394    358.487543  8  5  8 112       
PG21  -1686.311029 -21452.386797  16068.593884   -482.603330  7  7  6 117       
PG22 -20119.828535 -10365.451876  14275.713886    395.229241 11 11 11 125       
PG23  -5334.802239  17750.559717 -18694.522369   -135.516666  9  8 10 117       
PG24  14754.943593 -21730.805495   3271.787187     -5.372722  9  4  7 113       
PG25   2062.350675 -14813.949010 -22039.814273    -44.231237  9  6  6 102       
PG26 -24960.845268  -5168.654564  -7478.320168    -64.936671  8  8  9  93       
PG27 -17243.775134  -2193.336961  20090.089084     22.843648  9  9  7 113       
PG28  16252.139185  12683.657511  17417.562886    470.338454  7  6  7 108       
PG29  -3138.687496 -23697.795603 -11604.782484    636.455074 10  7 10 103       
PG30   6052.027072  16317.656668  20040.905591     31.354126  6  6  6 105       
PG31 -13670.351629  -6118.074893 -21819.967432    301.394839  6  9  8  96       
PG32 -23038.857787   6147.256046 -11154.905286    -31.716184 12  9  9 143       
*  2015  9 27  0 15  0.00000000
PG01 -13753.865551  22356.369799   3195.517233      1.236523  9  4  8 100       
PG02  17178.931632  -3633.705654 -19415.740216    590.535984  9  7  8 138       
PG03 -15398.801983  13081.429618 -17242.565495     21.227385  9  9  9 132       
PG04 -16981.071841  16550.013320  11348.749294    -25.155146  7  6  7  95       
PG05  26585.464518  -2064.155152    195.369872   -191.249944  6  8  9 155       
PG06  12277.238729   9218.783443 -21674.520484     65.722122  8  8  6 111       
PG07  -3719.482949  23625.631350  11243.205418    484.072577  5  7  5  98       
PG08 -12436.227928   8825.589876  21788.601775     -6.683658  8  6  2 121       
PG09   5366.489800  23090.126186 -11970.629520     -7.188004  8  4  8 119       
PG10 -20260.425791  -7614.886813  15657.838241      1.107334 13 13  8   9       
PG11 -10799.679849  21552.955300  10498.519347   -606.630223  9  6  8  91       
PG12  18029.630178 -10872.823548 -16163.117094    331.693681  9  9  6 112       
PG13  16767.608964   2358.737923  20301.812247   -152.236878  7  9  5 119       
PG14 -14670.456290 -22011.030112  -2934.750307     31.992204  9 10 10 110       
PG15  12156.826522 -10083.687257  21247.356810   -273.732664  8  7  9 115       
PG16 -26764.051264   -125.640383    -48.146989    -82.446796 10  9  8 102       
PG17  15550.225904  21361.220504  -3356.956897   -189.065047 10  6  7  96       
PG18  -4907.848710 -15718.564760  21374.740507    437.495970 11  8  9 107       
PG19  -5830.892333  16962.385437  19236.391200   -520.695336  7  7  4 119       
PG20  18183.304097 -13219.329916  14051.188806    358.490311  8  6  7 109       
PG21   -731.431526 -22796.043193  14046.017675   -482.605730  7  7  6 110       
PG22 -18424.699058 -10693.104070  16207.321284    395.232355 10 10 10 122       
PG23  -6647.088780  15906.578140 -19923.019021   -135.518452  9  8  9 112       
PG24  14762.843704 -21119.196044   6051.837522     -5.372937  8  4  7 116       
PG25   4535.519827 -14854.337038 -21622.377920    -44.235952  9  5  6 106       
PG26 -23964.861847  -5436.706892 -10090.159248    -64.947346  8  7  9  86       
PG27 -18336.176815  -4133.368751  18787.227555     22.846376  9  8  7 107       
PG28  14281.872550  12682.559327  19117.011238    470.341273  7  6  7 119       
PG29  -2285.277571 -22500.143077 -13945.677937    636.456759 10  7  9 122       
PG30   4754.824428  18130.521245  18786.329154     31.359910  6  5  5 115       
PG31 -12394.065359  -8293.718874 -21833.755635    301.393603  6  9  7  92       
PG32 -24166.172188   5793.461583  -8616.794558    -31.706291 11  9  9  59       
*  2015  9 27  0 30  0.00000000
PG01 -13764.225452  21759.519192   6002.057628      1.237163  9  5  8  79       
PG02  16390.395572  -1393.655478 -20384.975928    590.537695  9  7  7 140       
PG03 -17272.743416  13092.204857 -15359.081792     21.227210  9  9  9 128       
PG04 -16643.529345  15069.172054  13637.014205    -25.159498  7  6  7  91       
PG05  26483.767464  -1772.642505  -2616.898303   -191.246018  6  8  9 119       
PG06  11226.798106  11433.993731 -21183.855216     65.728543  8  8  6 106       
PG07  -4422.822009  24544.195666   8667.333731    484.072097  5  7  5 108       
PG08 -13873.489408   6809.412367  21642.234436     -6.685068  8  6  1 118       
PG09   4314.471390  21999.452381 -14237.870275     -7.185784  8  4  7 109       
PG10 -21194.515334  -9007.196962  13592.841692      1.108072 12 12  8  89       
PG11 -11076.320255  20104.399353  12737.935400   -606.632596  8  7  7  84       
PG12  19746.652864 -10820.898233 -14018.151486    331.696487  9  9  6 107       
PG13  17786.478367   4398.772404  19055.879768   -152.239350  7  9  5 117       
PG14 -14575.842332 -22301.402362    -85.573531     31.989665  8  9 10 107       
PG15  13688.833451  -8162.338059  21170.607866   -273.734450  7  7  9 117       
PG16 -26608.851188   -270.299810  -2934.142958    -82.443261  9  8  9 117       
PG17  15516.279355  21683.988732   -499.702707   -189.066042  9  6  7 100       
PG18  -2564.451881 -16012.767578  21544.116487    437.499169 11  8  8 104       
PG19  -7096.384243  15014.667864  20419.665894   -520.695699  6  7  4 123       
PG20  19717.824454 -13206.447905  11852.341646    358.493072  8  6  7  96       
PG21     67.069863 -23970.007590  11787.803102   -482.608298  6  6  6 114       
PG22 -16548.360739 -11121.481571  17866.427881    395.235784  9  9 10 117       
PG23  -8115.002578  14032.977893 -20800.309172   -135.520427  9  8  8  92       
PG24  14676.146746 -20225.543869   8726.643623     -5.373228  8  5  7 103       
PG25   6936.734819 -15024.870337 -20835.488259    -44.240683  9  5  6  95       
PG26 -22699.620375  -5783.125397 -12528.427077    -64.958039  8  7  9  91       
PG27 -19434.149190  -5876.140036  17161.631923     22.849071  8  8  6 119       
PG28  12146.918452  12798.360876  20504.103159    470.343340  6  6  6 124       
PG29  -1234.074545 -21137.196853 -16046.833746    636.458848 10  7  9 121       
PG30   3629.256642  19867.450869  17207.662163     31.365662  6  5  5 112       
PG31 -11243.983493 -10519.666189 -21466.762047    301.392545  5  9  6  98       
PG32 -25011.775983   5491.482417  -5926.006000    -31.696388 11  9  9 137       
EOF
